[{"OBJECT_NAME":"STARLINK-3445","OBJECT_ID":"2022-016D","EPOCH":"2025-12-10T07:46:13.288224","MEAN_MOTION":15.08846987,"ECCENTRICITY":0.00019967,"INCLINATION":53.2214,"RA_OF_ASC_NODE":10.3912,"ARG_OF_PERICENTER":99.8646,"MEAN_ANOMALY":260.2572,"EPHEMERIS_TYPE":0,"CLASSIFICATION_TYPE":"U","NORAD_CAT_ID":51717,"ELEMENT_SET_NO":999,"REV_AT_EPOCH":20993,"BSTAR":-0.00023076334,"MEAN_MOTION_DOT":-3.96e-5,"MEAN_MOTION_DDOT":0},{"OBJECT_NAME":"STARLINK-3546","OBJECT_ID":"2022-016E","EPOCH":"2025-12-10T06:41:32.544096","MEAN_MOTION":15.10517673,"ECCENTRICITY":0.00032871,"INCLINATION":53.217,"RA_OF_ASC_NODE":10.2699,"ARG_OF_PERICENTER":43.1165,"MEAN_ANOMALY":317.0085,"EPHEMERIS_TYPE":0,"CLASSIFICATION_TYPE":"U","NORAD_CAT_ID":51718,"ELEMENT_SET_NO":999,"REV_AT_EPOCH":21105,"BSTAR":0.002319588,"MEAN_MOTION_DOT":0.0003858,"MEAN_MOTION_DDOT":0},{"OBJECT_NAME":"STARLINK-3540","OBJECT_ID":"2022-016F","EPOCH":"2025-12-10T07:34:13.827648","MEAN_MOTION":15.08841386,"ECCENTRICITY":0.00015416,"INCLINATION":53.2187,"RA_OF_ASC_NODE":10.4141,"ARG_OF_PERICENTER":85.8284,"MEAN_ANOMALY":274.2884,"EPHEMERIS_TYPE":0,"CLASSIFICATION_TYPE":"U","NORAD_CAT_ID":51719,"ELEMENT_SET_NO":999,"REV_AT_EPOCH":20993,"BSTAR":0.00016487161,"MEAN_MOTION_DOT":2.337e-5,"MEAN_MOTION_DDOT":0},{"OBJECT_NAME":"STARLINK-3526","OBJECT_ID":"2022-016G","EPOCH":"2025-12-10T05:28:25.079520","MEAN_MOTION":15.0883567,"ECCENTRICITY":0.00016477,"INCLINATION":53.2185,"RA_OF_ASC_NODE":10.7007,"ARG_OF_PERICENTER":94.8711,"MEAN_ANOMALY":265.2469,"EPHEMERIS_TYPE":0,"CLASSIFICATION_TYPE":"U","NORAD_CAT_ID":51720,"ELEMENT_SET_NO":999,"REV_AT_EPOCH":20991,"BSTAR":5.6252227e-5,"MEAN_MOTION_DOT":6.07e-6,"MEAN_MOTION_DDOT":0},{"OBJECT_NAME":"STARLINK-3524","OBJECT_ID":"2022-016H","EPOCH":"2025-12-10T07:19:42.399840","MEAN_MOTION":15.08834914,"ECCENTRICITY":0.00014204,"INCLINATION":53.2178,"RA_OF_ASC_NODE":10.3914,"ARG_OF_PERICENTER":95.6862,"MEAN_ANOMALY":264.4292,"EPHEMERIS_TYPE":0,"CLASSIFICATION_TYPE":"U","NORAD_CAT_ID":51721,"ELEMENT_SET_NO":999,"REV_AT_EPOCH":20993,"BSTAR":1.7321327e-5,"MEAN_MOTION_DOT":-1.2e-7,"MEAN_MOTION_DDOT":0},{"OBJECT_NAME":"STARLINK-3535","OBJECT_ID":"2022-016J","EPOCH":"2025-12-10T06:57:06.345792","MEAN_MOTION":15.08857864,"ECCENTRICITY":0.0001378,"INCLINATION":53.2197,"RA_OF_ASC_NODE":10.4539,"ARG_OF_PERICENTER":101.2598,"MEAN_ANOMALY":258.8549,"EPHEMERIS_TYPE":0,"CLASSIFICATION_TYPE":"U","NORAD_CAT_ID":51722,"ELEMENT_SET_NO":999,"REV_AT_EPOCH":20992,"BSTAR":0.00023686746,"MEAN_MOTION_DOT":3.486e-5,"MEAN_MOTION_DDOT":0},{"OBJECT_NAME":"STARLINK-3529","OBJECT_ID":"2022-016L","EPOCH":"2025-12-10T06:46:31.585728","MEAN_MOTION":15.08838414,"ECCENTRICITY":0.00012428,"INCLINATION":53.2163,"RA_OF_ASC_NODE":10.4862,"ARG_OF_PERICENTER":91.2624,"MEAN_ANOMALY":268.8511,"EPHEMERIS_TYPE":0,"CLASSIFICATION_TYPE":"U","NORAD_CAT_ID":51724,"ELEMENT_SET_NO":999,"REV_AT_EPOCH":20992,"BSTAR":1.5261848e-5,"MEAN_MOTION_DOT":-4.5e-7,"MEAN_MOTION_DDOT":0},{"OBJECT_NAME":"STARLINK-3522","OBJECT_ID":"2022-016M","EPOCH":"2025-12-10T05:27:01.975680","MEAN_MOTION":15.08846241,"ECCENTRICITY":0.00013644,"INCLINATION":53.2184,"RA_OF_ASC_NODE":10.7351,"ARG_OF_PERICENTER":88.3451,"MEAN_ANOMALY":271.7698,"EPHEMERIS_TYPE":0,"CLASSIFICATION_TYPE":"U","NORAD_CAT_ID":51725,"ELEMENT_SET_NO":999,"REV_AT_EPOCH":20991,"BSTAR":0.00026987958,"MEAN_MOTION_DOT":4.011e-5,"MEAN_MOTION_DDOT":0},{"OBJECT_NAME":"STARLINK-3527","OBJECT_ID":"2022-016N","EPOCH":"2025-12-10T07:46:08.394528","MEAN_MOTION":15.08835531,"ECCENTRICITY":0.0001502,"INCLINATION":53.2186,"RA_OF_ASC_NODE":0.3006,"ARG_OF_PERICENTER":84.5405,"MEAN_ANOMALY":275.5759,"EPHEMERIS_TYPE":0,"CLASSIFICATION_TYPE":"U","NORAD_CAT_ID":51726,"ELEMENT_SET_NO":999,"REV_AT_EPOCH":21007,"BSTAR":3.7264557e-5,"MEAN_MOTION_DOT":3.05e-6,"MEAN_MOTION_DDOT":0},{"OBJECT_NAME":"STARLINK-3532","OBJECT_ID":"2022-016P","EPOCH":"2025-12-10T06:51:49.892832","MEAN_MOTION":15.08835768,"ECCENTRICITY":0.00014497,"INCLINATION":53.2184,"RA_OF_ASC_NODE":10.4709,"ARG_OF_PERICENTER":86.6993,"MEAN_ANOMALY":273.4165,"EPHEMERIS_TYPE":0,"CLASSIFICATION_TYPE":"U","NORAD_CAT_ID":51727,"ELEMENT_SET_NO":999,"REV_AT_EPOCH":20992,"BSTAR":3.1579892e-5,"MEAN_MOTION_DOT":2.15e-6,"MEAN_MOTION_DDOT":0},{"OBJECT_NAME":"STARLINK-3523","OBJECT_ID":"2022-016R","EPOCH":"2025-12-10T07:51:26.612640","MEAN_MOTION":15.08826697,"ECCENTRICITY":0.00015986,"INCLINATION":53.2194,"RA_OF_ASC_NODE":0.2857,"ARG_OF_PERICENTER":86.196,"MEAN_ANOMALY":273.9215,"EPHEMERIS_TYPE":0,"CLASSIFICATION_TYPE":"U","NORAD_CAT_ID":51729,"ELEMENT_SET_NO":999,"REV_AT_EPOCH":21007,"BSTAR":0.00019916013,"MEAN_MOTION_DOT":2.882e-5,"MEAN_MOTION_DDOT":0},{"OBJECT_NAME":"STARLINK-3514","OBJECT_ID":"2022-016T","EPOCH":"2025-12-10T07:40:50.782944","MEAN_MOTION":15.08839963,"ECCENTRICITY":0.00014911,"INCLINATION":53.219,"RA_OF_ASC_NODE":0.3176,"ARG_OF_PERICENTER":92.5271,"MEAN_ANOMALY":267.5892,"EPHEMERIS_TYPE":0,"CLASSIFICATION_TYPE":"U","NORAD_CAT_ID":51731,"ELEMENT_SET_NO":999,"REV_AT_EPOCH":21007,"BSTAR":6.8983593e-5,"MEAN_MOTION_DOT":8.1e-6,"MEAN_MOTION_DDOT":0},{"OBJECT_NAME":"STARLINK-3518","OBJECT_ID":"2022-016U","EPOCH":"2025-12-10T07:19:38.758944","MEAN_MOTION":15.08845073,"ECCENTRICITY":0.00013219,"INCLINATION":53.2186,"RA_OF_ASC_NODE":0.382,"ARG_OF_PERICENTER":92.4499,"MEAN_ANOMALY":267.6645,"EPHEMERIS_TYPE":0,"CLASSIFICATION_TYPE":"U","NORAD_CAT_ID":51732,"ELEMENT_SET_NO":999,"REV_AT_EPOCH":21121,"BSTAR":0.00010128211,"MEAN_MOTION_DOT":1.325e-5,"MEAN_MOTION_DDOT":0},{"OBJECT_NAME":"STARLINK-3525","OBJECT_ID":"2022-016V","EPOCH":"2025-12-10T07:31:38.514144","MEAN_MOTION":15.08838465,"ECCENTRICITY":0.00015342,"INCLINATION":53.2186,"RA_OF_ASC_NODE":0.3549,"ARG_OF_PERICENTER":84.3296,"MEAN_ANOMALY":275.7871,"EPHEMERIS_TYPE":0,"CLASSIFICATION_TYPE":"U","NORAD_CAT_ID":51733,"ELEMENT_SET_NO":999,"REV_AT_EPOCH":21007,"BSTAR":9.5370295e-5,"MEAN_MOTION_DOT":1.23e-5,"MEAN_MOTION_DDOT":0},{"OBJECT_NAME":"STARLINK-3450","OBJECT_ID":"2022-016W","EPOCH":"2025-12-10T05:28:22.411488","MEAN_MOTION":15.08845773,"ECCENTRICITY":0.00017349,"INCLINATION":53.2199,"RA_OF_ASC_NODE":0.7301,"ARG_OF_PERICENTER":95.4487,"MEAN_ANOMALY":264.6703,"EPHEMERIS_TYPE":0,"CLASSIFICATION_TYPE":"U","NORAD_CAT_ID":51734,"ELEMENT_SET_NO":999,"REV_AT_EPOCH":21005,"BSTAR":-0.00017931482,"MEAN_MOTION_DOT":-3.141e-5,"MEAN_MOTION_DDOT":0},{"OBJECT_NAME":"STARLINK-3517","OBJECT_ID":"2022-016X","EPOCH":"2025-12-10T05:38:58.011360","MEAN_MOTION":15.08836964,"ECCENTRICITY":0.00015904,"INCLINATION":53.22,"RA_OF_ASC_NODE":0.6967,"ARG_OF_PERICENTER":87.4451,"MEAN_ANOMALY":272.6723,"EPHEMERIS_TYPE":0,"CLASSIFICATION_TYPE":"U","NORAD_CAT_ID":51735,"ELEMENT_SET_NO":999,"REV_AT_EPOCH":21006,"BSTAR":6.3838709e-5,"MEAN_MOTION_DOT":7.28e-6,"MEAN_MOTION_DDOT":0},{"OBJECT_NAME":"STARLINK-3447","OBJECT_ID":"2022-016Y","EPOCH":"2025-12-10T05:29:45.428928","MEAN_MOTION":15.08840961,"ECCENTRICITY":0.00015209,"INCLINATION":53.2196,"RA_OF_ASC_NODE":0.8126,"ARG_OF_PERICENTER":96.9311,"MEAN_ANOMALY":263.1854,"EPHEMERIS_TYPE":0,"CLASSIFICATION_TYPE":"U","NORAD_CAT_ID":51736,"ELEMENT_SET_NO":999,"REV_AT_EPOCH":21005,"BSTAR":2.9476087e-5,"MEAN_MOTION_DOT":1.81e-6,"MEAN_MOTION_DDOT":0},{"OBJECT_NAME":"STARLINK-3509","OBJECT_ID":"2022-016Z","EPOCH":"2025-12-10T05:33:40.152672","MEAN_MOTION":15.08838884,"ECCENTRICITY":0.00015505,"INCLINATION":53.22,"RA_OF_ASC_NODE":0.7135,"ARG_OF_PERICENTER":100.0401,"MEAN_ANOMALY":260.0766,"EPHEMERIS_TYPE":0,"CLASSIFICATION_TYPE":"U","NORAD_CAT_ID":51737,"ELEMENT_SET_NO":999,"REV_AT_EPOCH":21005,"BSTAR":0.00010882557,"MEAN_MOTION_DOT":1.444e-5,"MEAN_MOTION_DDOT":0},{"OBJECT_NAME":"STARLINK-3515","OBJECT_ID":"2022-016AA","EPOCH":"2025-12-10T06:42:32.848704","MEAN_MOTION":15.08839635,"ECCENTRICITY":0.00015539,"INCLINATION":53.2187,"RA_OF_ASC_NODE":0.499,"ARG_OF_PERICENTER":89.687,"MEAN_ANOMALY":270.43,"EPHEMERIS_TYPE":0,"CLASSIFICATION_TYPE":"U","NORAD_CAT_ID":51738,"ELEMENT_SET_NO":999,"REV_AT_EPOCH":21006,"BSTAR":4.7745549e-5,"MEAN_MOTION_DOT":4.72e-6,"MEAN_MOTION_DDOT":0},{"OBJECT_NAME":"STARLINK-3516","OBJECT_ID":"2022-016AB","EPOCH":"2025-12-10T06:58:27.864192","MEAN_MOTION":15.08831374,"ECCENTRICITY":0.00015053,"INCLINATION":53.2196,"RA_OF_ASC_NODE":0.4498,"ARG_OF_PERICENTER":93.1617,"MEAN_ANOMALY":266.9548,"EPHEMERIS_TYPE":0,"CLASSIFICATION_TYPE":"U","NORAD_CAT_ID":51739,"ELEMENT_SET_NO":999,"REV_AT_EPOCH":21006,"BSTAR":-1.6361813e-5,"MEAN_MOTION_DOT":-5.48e-6,"MEAN_MOTION_DDOT":0},{"OBJECT_NAME":"STARLINK-3500","OBJECT_ID":"2022-016AC","EPOCH":"2025-12-10T08:07:20.468640","MEAN_MOTION":15.08835431,"ECCENTRICITY":0.00014411,"INCLINATION":53.2183,"RA_OF_ASC_NODE":0.2355,"ARG_OF_PERICENTER":88.8343,"MEAN_ANOMALY":271.2815,"EPHEMERIS_TYPE":0,"CLASSIFICATION_TYPE":"U","NORAD_CAT_ID":51740,"ELEMENT_SET_NO":999,"REV_AT_EPOCH":21007,"BSTAR":4.5452429e-5,"MEAN_MOTION_DOT":4.35e-6,"MEAN_MOTION_DDOT":0},{"OBJECT_NAME":"STARLINK-3520","OBJECT_ID":"2022-016AD","EPOCH":"2025-12-10T06:49:13.705824","MEAN_MOTION":15.08837538,"ECCENTRICITY":0.00015525,"INCLINATION":53.2186,"RA_OF_ASC_NODE":0.4878,"ARG_OF_PERICENTER":87.841,"MEAN_ANOMALY":272.276,"EPHEMERIS_TYPE":0,"CLASSIFICATION_TYPE":"U","NORAD_CAT_ID":51741,"ELEMENT_SET_NO":999,"REV_AT_EPOCH":21006,"BSTAR":7.6899212e-5,"MEAN_MOTION_DOT":9.36e-6,"MEAN_MOTION_DDOT":0},{"OBJECT_NAME":"STARLINK-3521","OBJECT_ID":"2022-016AE","EPOCH":"2025-12-10T06:53:12.179328","MEAN_MOTION":15.08826408,"ECCENTRICITY":0.00014864,"INCLINATION":53.2192,"RA_OF_ASC_NODE":0.6571,"ARG_OF_PERICENTER":98.1615,"MEAN_ANOMALY":261.9545,"EPHEMERIS_TYPE":0,"CLASSIFICATION_TYPE":"U","NORAD_CAT_ID":51742,"ELEMENT_SET_NO":999,"REV_AT_EPOCH":21006,"BSTAR":-9.6119863e-5,"MEAN_MOTION_DOT":-1.817e-5,"MEAN_MOTION_DDOT":0}]
